SL-16 R/B               
1 28353U 04021B   25145.43929906  .00000061  00000+0  56673-4 0  9994
2 28353  70.9999 117.3831 0003117 135.7605 224.3767 14.14551754 82074
CZ-4B R/B               
1 28415U 04035C   25145.56547174  .00005266  00000+0  21752-3 0  9996
2 28415  97.3804 178.8288 0034173 266.1796  93.5534 15.23910179135961
CZ-2C R/B               
1 28480U 04046B   25145.56357589  .00000140  00000+0  67939-4 0  9993
2 28480  98.1942  73.5699 0138510 287.1145  71.4907 14.26827060 67414
ARIANE 5 R/B            
1 28499U 04049H   25145.41317525  .00001005  00000+0  11921-3 0  9996
2 28499  98.2315 298.8484 0084940 204.3254 155.3940 14.84463263103013
CZ-2D R/B               
1 28738U 05024B   25145.46124654  .00014732  00000+0  33561-3 0  9995
2 28738  97.3671 149.2816 0006449  20.5469 339.6037 15.43019741 95137
ALOS (DAICHI)           
1 28931U 06002A   25145.62420213  .00001374  00000+0  24463-3 0  9994
2 28931  98.0835  99.0377 0002188  97.3381 262.8073 14.68661915 31181
H-2A R/B                
1 28932U 06002B   25145.57335944  .00006787  00000+0  39720-3 0  9990
2 28932  98.2095 264.9679 0060120 137.2021 223.3911 15.10668011 50866
RESURS-DK 1             
1 29228U 06021A   25145.57172699  .00001974  00000+0  12459-3 0  9999
2 29228  69.9340 261.1205 0006355 226.2560 133.8080 15.10890096 44005
GENESIS 1               
1 29252U 06029A   25145.20982933  .00189608  20084-4  61059-3 0  9994
2 29252  64.4989  60.2882 0026169 283.4963  76.3279 15.90151337 43878
CZ-4B R/B               
1 29507U 06046C   25145.53032191  .00004179  00000+0  23284-3 0  9992
2 29507  97.5965 186.2074 0035895 180.6642 179.4547 15.13616937 16412
CZ-2C R/B               
1 31114U 07010B   25145.57058572  .00000071  00000+0  51384-4 0  9996
2 31114  98.3766 268.6009 0059983  52.8997 307.7642 14.20122982938826
COSMO-SKYMED 1          
1 31598U 07023A   25145.58095419  .00000660  00000+0  76106-4 0  9991
2 31598  97.8873 330.0479 0000174 153.6015 206.5211 14.89008912971858
GENESIS 2               
1 31789U 07028A   25145.62084803  .00087566  00000+0  56272-3 0  9999
2 31789  64.4744 111.1946 0021301 311.9363  47.9971 15.75421594990553
COSMOS 2428             
1 31792U 07029A   25145.53058024  .00000123  00000+0  91753-4 0  9998
2 31792  70.9354  88.2368 0005640 286.8177  73.2325 14.12847667923395
SL-16 R/B               
1 31793U 07029B   25145.18955063  .00000256  00000+0  15737-3 0  9993
2 31793  70.9762  58.8045 0001617 269.6885 252.5623 14.14780667924560
KORONAS-FOTON           
1 33504U 09003A   25145.43603516  .00006903  00000+0  19281-3 0  9993
2 33504  82.4343 213.7314 0013799 109.7477 250.5256 15.36414150901393
CZ-2C R/B               
1 37731U 11030B   25145.39518705  .00000896  00000+0  12221-3 0  9994
2 37731  97.8138 104.4811 0052805 207.0086 268.1809 14.80163419747437
H-2A R/B                
1 38341U 12025E   25145.58559086  .00002511  00000+0  24349-3 0  9995
2 38341  98.4371  85.9691 0046663 172.1120 188.0842 14.92909183705201
SHIJIAN-16 (SJ-16)      
1 39358U 13057A   25145.58426407  .00001622  00000+0  16522-3 0  9996
2 39358  74.9726  10.0149 0016281  93.9164 266.3886 14.91320374628548
SL-4 R/B                
1 39679U 14021B   25144.71472440  .00011638  00000+0  32181-3 0  9993
2 39679  51.6082 297.5731 0114135 136.2809 224.7281 15.31171499611898
ALOS-2                  
1 39766U 14029A   25145.53530504  .00001458  00000+0  20209-3 0  9992
2 39766  97.9229 243.2626 0001614  96.8689 263.2706 14.79475061594260
YAOGAN-29               
1 41038U 15069A   25145.58211106  .00000432  00000+0  60370-4 0  9996
2 41038  98.0352 167.8944 0001643 148.1517 211.9795 14.82619580513181
ASTRO-H (HITOMI)        
1 41337U 16012A   25145.07856212  .00002575  00000+0  15759-3 0  9994
2 41337  31.0008  55.7726 0010243 314.1328  45.8467 15.07936191508601
HXMT (HUIYAN)           
1 42758U 17034A   25145.53986280  .00003280  00000+0  18912-3 0  9995
2 42758  43.0134 173.5710 0035905 218.6870 141.1403 15.13663201438828
CZ-2C R/B               
1 43521U 18054D   25145.50883977  .00032812  00000+0  53072-3 0  9992
2 43521  35.1391  75.7558 0033452  34.6810 325.6089 15.51161281383621
SAOCOM 1A               
1 43641U 18076A   25145.62550221  .00000422  00000+0  59506-4 0  9996
2 43641  97.8890 332.9328 0001471  89.3841 270.7540 14.82155386358696
H-2A R/B                
1 43682U 18084L   25145.40632591  .00009501  00000+0  32521-3 0  9991
2 43682  98.8731 299.3039 0031694 294.7856  65.0083 15.30048180361552
SAOCOM 1B               
1 46265U 20059A   25145.58924559  .00000395  00000+0  56195-4 0  9999
2 46265  97.8888 332.0001 0001441  88.9966 271.1412 14.82155177256077
CSS (TIANHE)            
1 48274U 21035A   25145.51103245  .00014645  00000+0  16390-3 0  9995
2 48274  41.4630 158.2294 0005110 334.2991  25.7594 15.62400414232617
COSMOS 2550             
1 48865U 21056A   25145.56069949  .00002472  00000+0  80973-4 0  9995
2 48865  67.1414 192.5445 0008361 269.7680  90.2517 15.33821315219280
CZ-2C R/B               
1 52794U 22058K   25145.53115048  .00018633  00000+0  45302-3 0  9995
2 52794  50.1947 341.1806 0057470  83.4029 277.3473 15.39271323165569
GSLV R/B                
1 54149U 22138AN  25145.35730540  .00002424  00000+0  21949-3 0  9992
2 54149  87.3781 262.9074 0024712 116.0013 244.3767 14.94718439140836
XRISM                   
1 57800U 23137A   25145.60837613  .00004578  00000+0  28513-3 0  9992
2 57800  31.0028 341.3297 0008241  25.3180 334.7861 15.07915342 94225
ACS3                    
1 59588U 24077B   25145.24070681  .00004362  00000+0  43359-2 0  9990
2 59588  97.4801 144.4260 0052532  83.0422 277.6706 13.77901582 54336
